[{"OBJECT_NAME":"ONEWEB-0092","OBJECT_ID":"2020-020P","EPOCH":"2025-09-08T06:06:46.594080","MEAN_MOTION":13.11419276,"ECCENTRICITY":0.00018866,"INCLINATION":87.8781,"RA_OF_ASC_NODE":77.232,"ARG_OF_PERICENTER":92.1613,"MEAN_ANOMALY":267.9731,"EPHEMERIS_TYPE":0,"CLASSIFICATION_TYPE":"U","NORAD_CAT_ID":45437,"ELEMENT_SET_NO":999,"REV_AT_EPOCH":26583,"BSTAR":-0.00031776761,"MEAN_MOTION_DOT":-1.0e-6,"MEAN_MOTION_DDOT":0},{"OBJECT_NAME":"ONEWEB-0085","OBJECT_ID":"2020-020Q","EPOCH":"2025-09-08T05:09:25.935264","MEAN_MOTION":13.11415324,"ECCENTRICITY":0.00017013,"INCLINATION":87.8773,"RA_OF_ASC_NODE":77.254,"ARG_OF_PERICENTER":88.487,"MEAN_ANOMALY":271.6453,"EPHEMERIS_TYPE":0,"CLASSIFICATION_TYPE":"U","NORAD_CAT_ID":45438,"ELEMENT_SET_NO":999,"REV_AT_EPOCH":26571,"BSTAR":0.00076411435,"MEAN_MOTION_DOT":2.84e-6,"MEAN_MOTION_DDOT":0},{"OBJECT_NAME":"ONEWEB-0096","OBJECT_ID":"2020-020R","EPOCH":"2025-09-08T01:32:07.330272","MEAN_MOTION":13.11415598,"ECCENTRICITY":0.00016751,"INCLINATION":87.8789,"RA_OF_ASC_NODE":77.2526,"ARG_OF_PERICENTER":81.4539,"MEAN_ANOMALY":278.6778,"EPHEMERIS_TYPE":0,"CLASSIFICATION_TYPE":"U","NORAD_CAT_ID":45439,"ELEMENT_SET_NO":999,"REV_AT_EPOCH":26568,"BSTAR":0.0004793948,"MEAN_MOTION_DOT":1.83e-6,"MEAN_MOTION_DDOT":0},{"OBJECT_NAME":"ONEWEB-0037","OBJECT_ID":"2020-020S","EPOCH":"2025-09-08T01:04:02.973504","MEAN_MOTION":13.11416303,"ECCENTRICITY":0.00017713,"INCLINATION":87.8791,"RA_OF_ASC_NODE":77.2218,"ARG_OF_PERICENTER":89.3323,"MEAN_ANOMALY":270.8008,"EPHEMERIS_TYPE":0,"CLASSIFICATION_TYPE":"U","NORAD_CAT_ID":45440,"ELEMENT_SET_NO":999,"REV_AT_EPOCH":26571,"BSTAR":0.0015410612,"MEAN_MOTION_DOT":5.59e-6,"MEAN_MOTION_DDOT":0},{"OBJECT_NAME":"ONEWEB-0042","OBJECT_ID":"2020-020T","EPOCH":"2025-09-08T01:17:15.741024","MEAN_MOTION":13.11416083,"ECCENTRICITY":0.00018259,"INCLINATION":87.8777,"RA_OF_ASC_NODE":77.2609,"ARG_OF_PERICENTER":86.9614,"MEAN_ANOMALY":273.1723,"EPHEMERIS_TYPE":0,"CLASSIFICATION_TYPE":"U","NORAD_CAT_ID":45441,"ELEMENT_SET_NO":999,"REV_AT_EPOCH":26568,"BSTAR":0.0014695658,"MEAN_MOTION_DOT":5.34e-6,"MEAN_MOTION_DDOT":0},{"OBJECT_NAME":"ONEWEB-0098","OBJECT_ID":"2020-020U","EPOCH":"2025-09-08T01:11:22.073856","MEAN_MOTION":13.11415453,"ECCENTRICITY":0.00015634,"INCLINATION":87.8781,"RA_OF_ASC_NODE":77.2722,"ARG_OF_PERICENTER":87.8071,"MEAN_ANOMALY":272.3236,"EPHEMERIS_TYPE":0,"CLASSIFICATION_TYPE":"U","NORAD_CAT_ID":45442,"ELEMENT_SET_NO":999,"REV_AT_EPOCH":26566,"BSTAR":0.0010803897,"MEAN_MOTION_DOT":3.96e-6,"MEAN_MOTION_DDOT":0},{"OBJECT_NAME":"ONEWEB-0055","OBJECT_ID":"2020-020V","EPOCH":"2025-09-08T00:46:57.165312","MEAN_MOTION":13.11419738,"ECCENTRICITY":0.00016189,"INCLINATION":87.878,"RA_OF_ASC_NODE":77.2768,"ARG_OF_PERICENTER":88.5018,"MEAN_ANOMALY":271.6296,"EPHEMERIS_TYPE":0,"CLASSIFICATION_TYPE":"U","NORAD_CAT_ID":45443,"ELEMENT_SET_NO":999,"REV_AT_EPOCH":26563,"BSTAR":0.00078751167,"MEAN_MOTION_DOT":2.92e-6,"MEAN_MOTION_DDOT":0},{"OBJECT_NAME":"ONEWEB-0093","OBJECT_ID":"2020-020W","EPOCH":"2025-09-08T05:41:19.832640","MEAN_MOTION":13.11415511,"ECCENTRICITY":0.00020169,"INCLINATION":87.878,"RA_OF_ASC_NODE":77.2209,"ARG_OF_PERICENTER":78.4261,"MEAN_ANOMALY":281.7093,"EPHEMERIS_TYPE":0,"CLASSIFICATION_TYPE":"U","NORAD_CAT_ID":45444,"ELEMENT_SET_NO":999,"REV_AT_EPOCH":26572,"BSTAR":-0.0016991077,"MEAN_MOTION_DOT":-5.89e-6,"MEAN_MOTION_DDOT":0},{"OBJECT_NAME":"ONEWEB-0029","OBJECT_ID":"2020-020X","EPOCH":"2025-09-08T06:04:20.699904","MEAN_MOTION":13.11418399,"ECCENTRICITY":0.00017007,"INCLINATION":87.8785,"RA_OF_ASC_NODE":77.2306,"ARG_OF_PERICENTER":83.2177,"MEAN_ANOMALY":276.9145,"EPHEMERIS_TYPE":0,"CLASSIFICATION_TYPE":"U","NORAD_CAT_ID":45445,"ELEMENT_SET_NO":999,"REV_AT_EPOCH":26570,"BSTAR":-0.00082071018,"MEAN_MOTION_DOT":-2.78e-6,"MEAN_MOTION_DDOT":0},{"OBJECT_NAME":"ONEWEB-0068","OBJECT_ID":"2020-020Y","EPOCH":"2025-09-08T05:40:55.524000","MEAN_MOTION":13.11416982,"ECCENTRICITY":0.00017096,"INCLINATION":87.878,"RA_OF_ASC_NODE":77.222,"ARG_OF_PERICENTER":81.645,"MEAN_ANOMALY":278.4871,"EPHEMERIS_TYPE":0,"CLASSIFICATION_TYPE":"U","NORAD_CAT_ID":45446,"ELEMENT_SET_NO":999,"REV_AT_EPOCH":26564,"BSTAR":-0.001405848,"MEAN_MOTION_DOT":-4.86e-6,"MEAN_MOTION_DDOT":0},{"OBJECT_NAME":"ONEWEB-0046","OBJECT_ID":"2020-020Z","EPOCH":"2025-09-08T05:28:56.042688","MEAN_MOTION":13.11415693,"ECCENTRICITY":0.00019286,"INCLINATION":87.8776,"RA_OF_ASC_NODE":77.2337,"ARG_OF_PERICENTER":85.5564,"MEAN_ANOMALY":274.5784,"EPHEMERIS_TYPE":0,"CLASSIFICATION_TYPE":"U","NORAD_CAT_ID":45447,"ELEMENT_SET_NO":999,"REV_AT_EPOCH":26565,"BSTAR":-0.0010141706,"MEAN_MOTION_DOT":-3.47e-6,"MEAN_MOTION_DDOT":0},{"OBJECT_NAME":"ONEWEB-0063","OBJECT_ID":"2020-020AA","EPOCH":"2025-09-08T06:10:26.605632","MEAN_MOTION":13.11419772,"ECCENTRICITY":0.00018916,"INCLINATION":87.878,"RA_OF_ASC_NODE":77.2263,"ARG_OF_PERICENTER":91.9402,"MEAN_ANOMALY":268.1942,"EPHEMERIS_TYPE":0,"CLASSIFICATION_TYPE":"U","NORAD_CAT_ID":45448,"ELEMENT_SET_NO":999,"REV_AT_EPOCH":26574,"BSTAR":-0.00041254128,"MEAN_MOTION_DOT":-1.34e-6,"MEAN_MOTION_DDOT":0},{"OBJECT_NAME":"ONEWEB-0019","OBJECT_ID":"2020-020AB","EPOCH":"2025-09-08T05:32:35.447712","MEAN_MOTION":13.11415334,"ECCENTRICITY":0.00016059,"INCLINATION":87.8773,"RA_OF_ASC_NODE":77.2477,"ARG_OF_PERICENTER":86.7381,"MEAN_ANOMALY":273.3931,"EPHEMERIS_TYPE":0,"CLASSIFICATION_TYPE":"U","NORAD_CAT_ID":45449,"ELEMENT_SET_NO":999,"REV_AT_EPOCH":26558,"BSTAR":-0.0010611029,"MEAN_MOTION_DOT":-3.63e-6,"MEAN_MOTION_DDOT":0},{"OBJECT_NAME":"ONEWEB-0094","OBJECT_ID":"2020-020AC","EPOCH":"2025-09-08T04:13:26.295456","MEAN_MOTION":13.17649165,"ECCENTRICITY":0.00017355,"INCLINATION":87.9041,"RA_OF_ASC_NODE":61.932,"ARG_OF_PERICENTER":89.3506,"MEAN_ANOMALY":270.7824,"EPHEMERIS_TYPE":0,"CLASSIFICATION_TYPE":"U","NORAD_CAT_ID":45450,"ELEMENT_SET_NO":999,"REV_AT_EPOCH":26917,"BSTAR":0.00010982422,"MEAN_MOTION_DOT":5.6e-7,"MEAN_MOTION_DDOT":0},{"OBJECT_NAME":"ONEWEB-0087","OBJECT_ID":"2020-020AD","EPOCH":"2025-09-08T00:55:17.442912","MEAN_MOTION":13.11417816,"ECCENTRICITY":0.00017839,"INCLINATION":87.8784,"RA_OF_ASC_NODE":77.2193,"ARG_OF_PERICENTER":79.1703,"MEAN_ANOMALY":280.9625,"EPHEMERIS_TYPE":0,"CLASSIFICATION_TYPE":"U","NORAD_CAT_ID":45451,"ELEMENT_SET_NO":999,"REV_AT_EPOCH":26560,"BSTAR":0.0013486317,"MEAN_MOTION_DOT":4.91e-6,"MEAN_MOTION_DDOT":0},{"OBJECT_NAME":"ONEWEB-0082","OBJECT_ID":"2020-020AE","EPOCH":"2025-09-08T00:50:37.089600","MEAN_MOTION":13.1141988,"ECCENTRICITY":0.00015919,"INCLINATION":87.8785,"RA_OF_ASC_NODE":77.2458,"ARG_OF_PERICENTER":82.7521,"MEAN_ANOMALY":277.3787,"EPHEMERIS_TYPE":0,"CLASSIFICATION_TYPE":"U","NORAD_CAT_ID":45452,"ELEMENT_SET_NO":999,"REV_AT_EPOCH":26569,"BSTAR":0.00076611831,"MEAN_MOTION_DOT":2.84e-6,"MEAN_MOTION_DDOT":0},{"OBJECT_NAME":"ONEWEB-0050","OBJECT_ID":"2020-020AF","EPOCH":"2025-09-08T02:06:01.037664","MEAN_MOTION":14.8889742,"ECCENTRICITY":0.0001829,"INCLINATION":88.0992,"RA_OF_ASC_NODE":274.3447,"ARG_OF_PERICENTER":171.6476,"MEAN_ANOMALY":188.4783,"EPHEMERIS_TYPE":0,"CLASSIFICATION_TYPE":"U","NORAD_CAT_ID":45453,"ELEMENT_SET_NO":999,"REV_AT_EPOCH":29838,"BSTAR":0.0036257551,"MEAN_MOTION_DOT":0.00034158,"MEAN_MOTION_DDOT":0}]
