ONEWEB-0092             
1 45437U 20020P   25251.25470595 -.00000100  00000+0 -31777-3 0  9999
2 45437  87.8781  77.2320 0001886  92.1613 267.9731 13.11419276265834
ONEWEB-0085             
1 45438U 20020Q   25251.21488351  .00000284  00000+0  76411-3 0  9990
2 45438  87.8773  77.2540 0001701  88.4870 271.6453 13.11415324265719
ONEWEB-0096             
1 45439U 20020R   25251.06397373  .00000183  00000+0  47939-3 0  9998
2 45439  87.8789  77.2526 0001675  81.4539 278.6778 13.11415598265682
ONEWEB-0037             
1 45440U 20020S   25251.04447886  .00000559  00000+0  15411-2 0  9999
2 45440  87.8791  77.2218 0001771  89.3323 270.8008 13.11416303265719
ONEWEB-0042             
1 45441U 20020T   25251.05365441  .00000534  00000+0  14696-2 0  9994
2 45441  87.8777  77.2609 0001825  86.9614 273.1723 13.11416083265685
ONEWEB-0098             
1 45442U 20020U   25251.04956104  .00000396  00000+0  10804-2 0  9999
2 45442  87.8781  77.2722 0001563  87.8071 272.3236 13.11415453265661
ONEWEB-0055             
1 45443U 20020V   25251.03260608  .00000292  00000+0  78751-3 0  9997
2 45443  87.8780  77.2768 0001618  88.5018 271.6296 13.11419738265636
ONEWEB-0093             
1 45444U 20020W   25251.23703510 -.00000589  00000+0 -16991-2 0  9992
2 45444  87.8780  77.2209 0002016  78.4261 281.7093 13.11415511265720
ONEWEB-0029             
1 45445U 20020X   25251.25301736 -.00000278  00000+0 -82071-3 0  9997
2 45445  87.8785  77.2306 0001700  83.2177 276.9145 13.11418399265702
ONEWEB-0068             
1 45446U 20020Y   25251.23675375 -.00000486  00000+0 -14058-2 0  9999
2 45446  87.8780  77.2220 0001709  81.6450 278.4871 13.11416982265640
ONEWEB-0046             
1 45447U 20020Z   25251.22842642 -.00000347  00000+0 -10142-2 0  9998
2 45447  87.8776  77.2337 0001928  85.5564 274.5784 13.11415693265656
ONEWEB-0063             
1 45448U 20020AA  25251.25725238 -.00000134  00000+0 -41254-3 0  9996
2 45448  87.8780  77.2263 0001891  91.9402 268.1942 13.11419772265748
ONEWEB-0019             
1 45449U 20020AB  25251.23096583 -.00000363  00000+0 -10611-2 0  9995
2 45449  87.8773  77.2477 0001605  86.7381 273.3931 13.11415334265587
ONEWEB-0094             
1 45450U 20020AC  25251.17599879  .00000056  00000+0  10982-3 0  9995
2 45450  87.9041  61.9320 0001735  89.3506 270.7824 13.17649165269175
ONEWEB-0087             
1 45451U 20020AD  25251.03839633  .00000491  00000+0  13486-2 0  9990
2 45451  87.8784  77.2193 0001783  79.1703 280.9625 13.11417816265602
ONEWEB-0082             
1 45452U 20020AE  25251.03515150  .00000284  00000+0  76612-3 0  9997
2 45452  87.8785  77.2458 0001591  82.7521 277.3787 13.11419880265694
ONEWEB-0050             
1 45453U 20020AF  25251.08751201  .00034158  00000+0  36258-2 0  9990
2 45453  88.0992 274.3447 0001829 171.6476 188.4783 14.88897420298382
